[{"OBJECT_NAME":"LEMUR-2-GREENBERG","OBJECT_ID":"2017-042N","EPOCH":"2026-03-09T11:05:17.256192","MEAN_MOTION":15.27971352,"ECCENTRICITY":0.00091572,"INCLINATION":97.3781,"RA_OF_ASC_NODE":249.8007,"ARG_OF_PERICENTER":4.0119,"MEAN_ANOMALY":356.1192,"EPHEMERIS_TYPE":0,"CLASSIFICATION_TYPE":"U","NORAD_CAT_ID":42837,"ELEMENT_SET_NO":999,"REV_AT_EPOCH":47314,"BSTAR":0.00072539172,"MEAN_MOTION_DOT":0.00019778,"MEAN_MOTION_DDOT":0},{"OBJECT_NAME":"STARLINK-30410","OBJECT_ID":"2023-141B","EPOCH":"2026-03-09T20:55:48.231264","MEAN_MOTION":15.30191856,"ECCENTRICITY":0.00013933,"INCLINATION":53.1598,"RA_OF_ASC_NODE":283.2442,"ARG_OF_PERICENTER":103.3134,"MEAN_ANOMALY":256.8022,"EPHEMERIS_TYPE":0,"CLASSIFICATION_TYPE":"U","NORAD_CAT_ID":57841,"ELEMENT_SET_NO":999,"REV_AT_EPOCH":14035,"BSTAR":3.5869498e-5,"MEAN_MOTION_DOT":7.03e-6,"MEAN_MOTION_DDOT":0}]
